CTC1_L_00596001-01
1 17527U 26044HY  26037.47810185  .00000000  00000+0  00000-0 0  9999
2 17527  70.0000   0.0000 0000000   0.0000   0.0000  5.94050264    17
CTC1_L_00596001-02
1 17528U 23723MD  26037.47810185  .00000000  00000+0  00000-0 0  9991
2 17528  70.0000   0.0000 0000000   0.0000  36.0000  5.94050264    17
CTC1_L_00596001-03
1 17529U 25899II  26037.47810185  .00000000  00000+0  00000-0 0  9998
2 17529  70.0000   0.0000 0000000   0.0000  72.0000  5.94050264    18
CTC1_L_00596001-04
1 17530U 24522OJ  26037.47810185  .00000000  00000+0  00000-0 0  9992
2 17530  70.0000   0.0000 0000000   0.0000 108.0000  5.94050264    10
CTC1_L_00596001-05
1 17531U 25943WA  26037.47810185  .00000000  00000+0  00000-0 0  9991
2 17531  70.0000   0.0000 0000000   0.0000 144.0000  5.94050264    11
CTC1_L_00596001-06
1 17532U 26239UP  26037.47810185  .00000000  00000+0  00000-0 0  9991
2 17532  70.0000   0.0000 0000000   0.0000 180.0000  5.94050264    12
CTC1_L_00596001-07
1 17533U 25648HN  26037.47810185  .00000000  00000+0  00000-0 0  9995
2 17533  70.0000   0.0000 0000000   0.0000 216.0000  5.94050264    13
CTC1_L_00596001-08
1 17534U 25321WC  26037.47810185  .00000000  00000+0  00000-0 0  9994
2 17534  70.0000   0.0000 0000000   0.0000 252.0000  5.94050264    14
CTC1_L_00596001-09
1 17535U 22933HS  26037.47810185  .00000000  00000+0  00000-0 0  9991
2 17535  70.0000   0.0000 0000000   0.0000 288.0000  5.94050264    14
CTC1_L_00596001-10
1 17536U 22432EU  26037.47810185  .00000000  00000+0  00000-0 0  9996
2 17536  70.0000   0.0000 0000000   0.0000 324.0000  5.94050264    16
CTC1_L_00596002-01
1 17537U 25984ON  26037.47810185  .00000000  00000+0  00000-0 0  9992
2 17537  70.0000  30.0000 0000000   0.0000  12.0000  5.94050264    14
CTC1_L_00596002-02
1 17538U 26118AT  26037.47810185  .00000000  00000+0  00000-0 0  9993
2 17538  70.0000  30.0000 0000000   0.0000  48.0000  5.94050264    14
CTC1_L_00596002-03
1 17539U 26294TD  26037.47810185  .00000000  00000+0  00000-0 0  9999
2 17539  70.0000  30.0000 0000000   0.0000  84.0000  5.94050264    15
CTC1_L_00596002-04
1 17540U 22864I   26037.47810185  .00000000  00000+0  00000-0 0  9990
2 17540  70.0000  30.0000 0000000   0.0000 120.0000  5.94050264    18
CTC1_L_00596002-05
1 17541U 25361R   26037.47810185  .00000000  00000+0  00000-0 0  9996
2 17541  70.0000  30.0000 0000000   0.0000 156.0000  5.94050264    18
CTC1_L_00596002-06
1 17542U 26124EB  26037.47810185  .00000000  00000+0  00000-0 0  9995
2 17542  70.0000  30.0000 0000000   0.0000 192.0000  5.94050264    19
CTC1_L_00596002-07
1 17543U 23613RO  26037.47810185  .00000000  00000+0  00000-0 0  9996
2 17543  70.0000  30.0000 0000000   0.0000 228.0000  5.94050264    10
CTC1_L_00596002-08
1 17544U 25870D   26037.47810185  .00000000  00000+0  00000-0 0  9994
2 17544  70.0000  30.0000 0000000   0.0000 264.0000  5.94050264    11
CTC1_L_00596002-09
1 17545U 23505P   26037.47810185  .00000000  00000+0  00000-0 0  9998
2 17545  70.0000  30.0000 0000000   0.0000 300.0000  5.94050264    13
CTC1_L_00596002-10
1 17546U 26883Q   26037.47810185  .00000000  00000+0  00000-0 0  9991
2 17546  70.0000  30.0000 0000000   0.0000 336.0000  5.94050264    13
CTC1_L_00596003-01
1 17547U 22223XZ  26037.47810185  .00000000  00000+0  00000-0 0  9996
2 17547  70.0000  60.0000 0000000   0.0000  24.0000  5.94050264    11
CTC1_L_00596003-02
1 17548U 23470UY  26037.47810185  .00000000  00000+0  00000-0 0  9992
2 17548  70.0000  60.0000 0000000   0.0000  60.0000  5.94050264    12
CTC1_L_00596003-03
1 17549U 24293JV  26037.47810185  .00000000  00000+0  00000-0 0  9997
2 17549  70.0000  60.0000 0000000   0.0000  96.0000  5.94050264    12
CTC1_L_00596003-04
1 17550U 26608DH  26037.47810185  .00000000  00000+0  00000-0 0  9991
2 17550  70.0000  60.0000 0000000   0.0000 132.0000  5.94050264    15
CTC1_L_00596003-05
1 17551U 24171GJ  26037.47810185  .00000000  00000+0  00000-0 0  9995
2 17551  70.0000  60.0000 0000000   0.0000 168.0000  5.94050264    15
CTC1_L_00596003-06
1 17552U 23667YF  26037.47810185  .00000000  00000+0  00000-0 0  9995
2 17552  70.0000  60.0000 0000000   0.0000 204.0000  5.94050264    17
CTC1_L_00596003-07
1 17553U 23026VU  26037.47810185  .00000000  00000+0  00000-0 0  9995
2 17553  70.0000  60.0000 0000000   0.0000 240.0000  5.94050264    18
CTC1_L_00596003-08
1 17554U 22357QT  26037.47810185  .00000000  00000+0  00000-0 0  9992
2 17554  70.0000  60.0000 0000000   0.0000 276.0000  5.94050264    18
CTC1_L_00596003-09
1 17555U 22361HD  26037.47810185  .00000000  00000+0  00000-0 0  9998
2 17555  70.0000  60.0000 0000000   0.0000 312.0000  5.94050264    10
CTC1_L_00596003-10
1 17556U 25269MX  26037.47810185  .00000000  00000+0  00000-0 0  9999
2 17556  70.0000  60.0000 0000000   0.0000 348.0000  5.94050264    10
CTC1_L_00596004-01
1 17557U 23687YS  26037.47810185  .00000000  00000+0  00000-0 0  9992
2 17557  70.0000  90.0000 0000000   0.0000  36.0000  5.94050264    18
CTC1_L_00596004-02
1 17558U 23567XW  26037.47810185  .00000000  00000+0  00000-0 0  9990
2 17558  70.0000  90.0000 0000000   0.0000  72.0000  5.94050264    19
CTC1_L_00596004-03
1 17559U 23680YI  26037.47810185  .00000000  00000+0  00000-0 0  9997
2 17559  70.0000  90.0000 0000000   0.0000 108.0000  5.94050264    10
CTC1_L_00596004-04
1 17560U 25044UC  26037.47810185  .00000000  00000+0  00000-0 0  9995
2 17560  70.0000  90.0000 0000000   0.0000 144.0000  5.94050264    12
CTC1_L_00596004-05
1 17561U 25949QS  26037.47810185  .00000000  00000+0  00000-0 0  9990
2 17561  70.0000  90.0000 0000000   0.0000 180.0000  5.94050264    13
CTC1_L_00596004-06
1 17562U 22969NP  26037.47810185  .00000000  00000+0  00000-0 0  9990
2 17562  70.0000  90.0000 0000000   0.0000 216.0000  5.94050264    14
CTC1_L_00596004-07
1 17563U 22134IX  26037.47810185  .00000000  00000+0  00000-0 0  9995
2 17563  70.0000  90.0000 0000000   0.0000 252.0000  5.94050264    15
CTC1_L_00596004-08
1 17564U 22850PF  26037.47810185  .00000000  00000+0  00000-0 0  9991
2 17564  70.0000  90.0000 0000000   0.0000 288.0000  5.94050264    15
CTC1_L_00596004-09
1 17565U 23755JC  26037.47810185  .00000000  00000+0  00000-0 0  9997
2 17565  70.0000  90.0000 0000000   0.0000 324.0000  5.94050264    17
CTC1_L_00596004-10
1 17566U 22236OQ  26037.47810185  .00000000  00000+0  00000-0 0  9991
2 17566  70.0000  90.0000 0000000   0.0000   0.0000  5.94050264    19
CTC1_L_00596005-01
1 17567U 23819XN  26037.47810185  .00000000  00000+0  00000-0 0  9990
2 17567  70.0000 120.0000 0000000   0.0000  48.0000  5.94050264    16
CTC1_L_00596005-02
1 17568U 24088PL  26037.47810185  .00000000  00000+0  00000-0 0  9990
2 17568  70.0000 120.0000 0000000   0.0000  84.0000  5.94050264    17
CTC1_L_00596005-03
1 17569U 26177HL  26037.47810185  .00000000  00000+0  00000-0 0  9992
2 17569  70.0000 120.0000 0000000   0.0000 120.0000  5.94050264    19
CTC1_L_00596005-04
1 17570U 24590P   26037.47810185  .00000000  00000+0  00000-0 0  9991
2 17570  70.0000 120.0000 0000000   0.0000 156.0000  5.94050264    10
CTC1_L_00596005-05
1 17571U 25110SJ  26037.47810185  .00000000  00000+0  00000-0 0  9991
2 17571  70.0000 120.0000 0000000   0.0000 192.0000  5.94050264    11
CTC1_L_00596005-06
1 17572U 24695YQ  26037.47810185  .00000000  00000+0  00000-0 0  9999
2 17572  70.0000 120.0000 0000000   0.0000 228.0000  5.94050264    12
CTC1_L_00596005-07
1 17573U 23433ZT  26037.47810185  .00000000  00000+0  00000-0 0  9999
2 17573  70.0000 120.0000 0000000   0.0000 264.0000  5.94050264    13
CTC1_L_00596005-08
1 17574U 24801OW  26037.47810185  .00000000  00000+0  00000-0 0  9990
2 17574  70.0000 120.0000 0000000   0.0000 300.0000  5.94050264    15
CTC1_L_00596005-09
1 17575U 23847SI  26037.47810185  .00000000  00000+0  00000-0 0  9990
2 17575  70.0000 120.0000 0000000   0.0000 336.0000  5.94050264    15
CTC1_L_00596005-10
1 17576U 23160UI  26037.47810185  .00000000  00000+0  00000-0 0  9999
2 17576  70.0000 120.0000 0000000   0.0000  12.0000  5.94050264    17
CTC1_L_00596006-01
1 17577U 25164VV  26037.47810185  .00000000  00000+0  00000-0 0  9996
2 17577  70.0000 150.0000 0000000   0.0000  60.0000  5.94050264    14
CTC1_L_00596006-02
1 17578U 22721WO  26037.47810185  .00000000  00000+0  00000-0 0  9993
2 17578  70.0000 150.0000 0000000   0.0000  96.0000  5.94050264    14
CTC1_L_00596006-03
1 17579U 23707HA  26037.47810185  .00000000  00000+0  00000-0 0  9999
2 17579  70.0000 150.0000 0000000   0.0000 132.0000  5.94050264    16
CTC1_L_00596006-04
1 17580U 25807WG  26037.47810185  .00000000  00000+0  00000-0 0  9994
2 17580  70.0000 150.0000 0000000   0.0000 168.0000  5.94050264    17
CTC1_L_00596006-05
1 17581U 26632KC  26037.47810185  .00000000  00000+0  00000-0 0  9992
2 17581  70.0000 150.0000 0000000   0.0000 204.0000  5.94050264    19
CTC1_L_00596006-06
1 17582U 23773GQ  26037.47810185  .00000000  00000+0  00000-0 0  9996
2 17582  70.0000 150.0000 0000000   0.0000 240.0000  5.94050264    10
CTC1_L_00596006-07
1 17583U 23474SR  26037.47810185  .00000000  00000+0  00000-0 0  9995
2 17583  70.0000 150.0000 0000000   0.0000 276.0000  5.94050264    10
CTC1_L_00596006-08
1 17584U 24844JL  26037.47810185  .00000000  00000+0  00000-0 0  9998
2 17584  70.0000 150.0000 0000000   0.0000 312.0000  5.94050264    12
CTC1_L_00596006-09
1 17585U 26634OJ  26037.47810185  .00000000  00000+0  00000-0 0  9998
2 17585  70.0000 150.0000 0000000   0.0000 348.0000  5.94050264    12
CTC1_L_00596006-10
1 17586U 26352ZA  26037.47810185  .00000000  00000+0  00000-0 0  9996
2 17586  70.0000 150.0000 0000000   0.0000  24.0000  5.94050264    14
CTC1_L_00596007-01
1 17587U 23993M   26037.47810185  .00000000  00000+0  00000-0 0  9995
2 17587  70.0000 180.0000 0000000   0.0000  72.0000  5.94050264    11
CTC1_L_00596007-02
1 17588U 26941NT  26037.47810185  .00000000  00000+0  00000-0 0  9992
2 17588  70.0000 180.0000 0000000   0.0000 108.0000  5.94050264    12
